IRIDIUM 155             
1 43573U 18061E   20081.82010075 -.00000002  00000-0 -76333-5 0  9993
2 43573  86.3923 288.8341 0001454  94.9170 265.2191 14.34218041 86809
IRIDIUM 154             
1 43574U 18061F   20082.28946153  .00000002  00000-0 -62851-5 0  9999
2 43574  86.3926 288.6633 0002187  78.1309 282.0132 14.34218509 86910
IRIDIUM 163             
1 43575U 18061G   20081.50298287  .00000001  00000-0 -65691-5 0  9996
2 43575  86.3924 288.9769 0002586  93.0833 267.0658 14.34218218 86770
IRIDIUM 156             
1 43576U 18061H   20081.82646144 -.00000003  00000-0 -79675-5 0  9991
2 43576  86.3924 288.8461 0002049  96.1612 263.9817 14.34217757 86805
IRIDIUM 164             
1 43577U 18061J   20082.57489100  .00000005  00000-0 -51033-5 0  9991
2 43577  86.3925 288.5386 0002230  82.2388 277.9061 14.34217340 86969
IRIDIUM 159             
1 43578U 18061K   20081.49663669 -.00000004  00000-0 -83847-5 0  9994
2 43578  86.3924 288.9745 0002146  81.2796 278.8643 14.34216939 86778
IRIDIUM 180             
1 43922U 19002A   20082.40312748  .00000066  00000-0  16361-4 0  9996
2 43922  86.3994 225.4175 0003113  79.1557 280.9989 14.34216662 62557
IRIDIUM 176             
1 43923U 19002B   20081.47363835  .00000139  00000-0  18177-4 0  9994
2 43923  86.6128 225.8266 0002512  93.5896 266.5608 14.72250894 63986
IRIDIUM 168             
1 43924U 19002C   20082.11770589  .00000414  00000-0  14074-3 0  9992
2 43924  86.3997 225.5494 0002217  86.5017 273.6433 14.34216277 62458
IRIDIUM 173             
1 43925U 19002D   20082.45386962  .00000049  00000-0  10423-4 0  9997
2 43925  86.3994 225.3906 0002247  90.1642 269.9811 14.34215915 62490
IRIDIUM 169             
1 43926U 19002E   20082.09204296  .00000030  00000-0  31412-5 0  9999
2 43926  86.4193 257.1186 0003117 283.3156  76.7695 14.38609509 62707
IRIDIUM 172             
1 43927U 19002F   20082.37776119  .00000066  00000-0  16376-4 0  9999
2 43927  86.3994 225.4234 0002313  88.1832 271.9628 14.34215691 62488
IRIDIUM 175             
1 43928U 19002G   20081.46755533  .00000142  00000-0  18591-4 0  9992
2 43928  86.6111 225.7383 0002049 116.6392 243.5035 14.72252683 63971
IRIDIUM 171             
1 43929U 19002H   20082.14941576  .00000030  00000-0  35633-5 0  9996
2 43929  86.4003 225.5717 0002242  86.8711 273.2742 14.34215255 62445
IRIDIUM 170             
1 43930U 19002J   20080.46036791  .00000140  00000-0  18268-4 0  9991
2 43930  86.6126 226.2568 0002506 100.4839 259.6660 14.72253572 63842
IRIDIUM 167             
1 43931U 19002K   20081.86401892  .00000063  00000-0  15547-4 0  9996
2 43931  86.3993 225.6400 0002920  78.8978 281.2546 14.34217557 62408
